STARLINK-32450          
1 61969U 24210L   26067.58679732  .00035602  00000+0  12967-2 0  9990
2 61969  42.9994 178.9286 0002229 261.1082  98.9517 15.27587636 74691
TEVEL2-7                
1 63238U 25052AE  26068.66113295  .00019244  00000+0  69668-3 0  9998
2 63238  97.4054 324.3041 0008105 124.6830 235.5175 15.28414096 54803
